     2.10           G: GLONASS NAV DATA                     RINEX VERSION / TYPE
teqc  2015Jun23                         20211218 01:25:46UTCPGM / RUN BY / DATE
Linux 2.4.21-27.ELsmp|Opteron|gcc -static|Linux x86_64|=+   COMMENT
  2021    11    24   -4.656612873077D-10                    CORR TO SYSTEM TIME
                                                            END OF HEADER
 9 21 11 25  8 15  0.0 2.541858702898D-05 2.728484105319D-12 2.880000000000D+04
    1.523650585938D+04 6.057415008545D-01-9.313225746155D-10 0.000000000000D+00
    1.908981738281D+04 8.302679061890D-01 1.862645149231D-09-2.000000000000D+00
   -7.460324707031D+03 3.347035408020D+00-9.313225746155D-10 0.000000000000D+00
 4 21 11 25  8 15  0.0 1.158853992820D-04 1.818989403546D-12 2.880000000000D+04
   -1.484793164062D+04 4.890022277832D-01-0.000000000000D+00 0.000000000000D+00
    2.018472021484D+04-4.623603820801D-01 1.862645149231D-09 6.000000000000D+00
   -4.715762695312D+03-3.505281448364D+00-9.313225746155D-10 0.000000000000D+00
 3 21 11 25  8 15  0.0 4.706252366304D-05 0.000000000000D+00 2.880000000000D+04
   -1.514995947266D+04 1.422711372375D+00-0.000000000000D+00 0.000000000000D+00
    7.662529785156D+03-2.188960075378D+00 2.793967723846D-09 5.000000000000D+00
   -1.897795751953D+04-2.021205902100D+00 0.000000000000D+00 0.000000000000D+00
 5 21 11 25  8 15  0.0 8.307024836540D-05 9.094947017729D-13 2.880000000000D+04
   -6.433042968750D+03-7.374992370605D-01-0.000000000000D+00 0.000000000000D+00
    2.146083447266D+04 1.503728866577D+00 9.313225746155D-10 1.000000000000D+00
    1.217118847656D+04-3.044459342957D+00-2.793967723846D-09 0.000000000000D+00
16 21 11 25  8 15  0.0-2.563372254372D-05-9.094947017729D-13 2.880000000000D+04
    8.164951171875D+03-5.377359390259D-01-0.000000000000D+00 0.000000000000D+00
    2.234487548828D+04-1.121256828308D+00 0.000000000000D+00-1.000000000000D+00
    8.995833984375D+03 3.277979850769D+00-2.793967723846D-09 0.000000000000D+00
19 21 11 25  8 15  0.0-1.682806760073D-04-9.094947017729D-13 2.880000000000D+04
   -2.592058105469D+03-3.185531616211D+00-0.000000000000D+00 0.000000000000D+00
    1.018195361328D+04-1.579208374023D-01 2.793967723846D-09 3.000000000000D+00
   -2.323820361328D+04 2.850914001465D-01 0.000000000000D+00 0.000000000000D+00
18 21 11 25  8 15  0.0 9.834393858910D-05 0.000000000000D+00 3.009000000000D+04
   -1.810033203125D+04-2.280860900879D+00-0.000000000000D+00 0.000000000000D+00
    6.882596191406D+03 9.767532348633D-02 1.862645149231D-09-3.000000000000D+00
   -1.655739062500D+04 2.534802436829D+00-0.000000000000D+00 0.000000000000D+00
 9 21 11 25  8 45  0.0 2.542324364185D-05 2.728484105319D-12 3.060000000000D+04
    1.599237988281D+04 1.963214874268D-01-9.313225746155D-10 0.000000000000D+00
    1.988204492188D+04 6.362342834473D-02 9.313225746155D-10-2.000000000000D+00
   -1.225859375000D+03 3.535316467285D+00-1.862645149231D-09 0.000000000000D+00
 4 21 11 25  8 45  0.0 1.158881932497D-04 1.818989403546D-12 3.060000000000D+04
   -1.370141943359D+04 7.422475814819D-01-0.000000000000D+00 0.000000000000D+00
    1.861152783203D+04-1.287940979004D+00 2.793967723846D-09 6.000000000000D+00
   -1.076103027344D+04-3.167972564697D+00-9.313225746155D-10 0.000000000000D+00
 5 21 11 25  8 45  0.0 8.307117968798D-05 9.094947017729D-13 3.060000000000D+04
   -7.245738769531D+03-1.892051696777D-01-0.000000000000D+00 0.000000000000D+00
    2.361982958984D+04 8.588695526123D-01 1.862645149231D-09 1.000000000000D+00
    6.290831054688D+03-3.446801185608D+00-2.793967723846D-09 0.000000000000D+00
16 21 11 25  8 45  0.0-2.563744783401D-05-9.094947017729D-13 3.060000000000D+04
    6.650458984375D+03-1.158301353455D+00-0.000000000000D+00 0.000000000000D+00
    1.983978808594D+04-1.620576858521D+00 0.000000000000D+00-1.000000000000D+00
    1.446853906250D+04 2.763049125671D+00-2.793967723846D-09 0.000000000000D+00
19 21 11 25  8 45  0.0-1.682834699750D-04-9.094947017729D-13 3.060000000000D+04
   -8.189011230469D+03-2.981062889099D+00-0.000000000000D+00 0.000000000000D+00
    1.033254931641D+04 3.154411315918D-01 2.793967723846D-09 3.000000000000D+00
   -2.183303466797D+04 1.266037940979D+00 0.000000000000D+00 0.000000000000D+00
18 21 11 25  8 45  0.0 9.834486991167D-05 0.000000000000D+00 3.117000000000D+04
   -2.156843261719D+04-1.541273117065D+00 0.000000000000D+00 0.000000000000D+00
    7.330124023438D+03 3.645839691162D-01 1.862645149231D-09-3.000000000000D+00
   -1.141155273438D+04 3.145544052124D+00-0.000000000000D+00 0.000000000000D+00
 9 21 11 25  9 15  0.0 2.542696893215D-05 2.728484105319D-12 3.240000000000D+04
    1.582456250000D+04-4.097108840942D-01-0.000000000000D+00 0.000000000000D+00
    1.939778369141D+04-5.723247528076D-01 9.313225746155D-10-2.000000000000D+00
    5.103038085938D+03 3.451334953308D+00-1.862645149231D-09 0.000000000000D+00
 4 21 11 25  9 15  0.0 1.158909872174D-04 1.818989403546D-12 3.240000000000D+04
   -1.233094189453D+04 7.385463714600D-01 0.000000000000D+00 0.000000000000D+00
    1.557524169922D+04-2.068466186523D+00 2.793967723846D-09 6.000000000000D+00
   -1.597276318359D+04-2.585144042969D+00-0.000000000000D+00 0.000000000000D+00
 5 21 11 25  9 15  0.0 8.307211101055D-05 0.000000000000D+00 3.240000000000D+04
   -7.223830566406D+03 1.775255203247D-01 0.000000000000D+00 0.000000000000D+00
    2.444820947266D+04 4.075622558594D-02 1.862645149231D-09 1.000000000000D+00
   -7.674755859375D+01-3.582262992859D+00-1.862645149231D-09 0.000000000000D+00
16 21 11 25  9 15  0.0-2.564024180174D-05-9.094947017729D-13 3.240000000000D+04
    3.979706542969D+03-1.804170608521D+00-0.000000000000D+00 0.000000000000D+00
    1.667214941406D+04-1.852507591248D+00-0.000000000000D+00-1.000000000000D+00
    1.881369140625D+04 2.033489227295D+00-2.793967723846D-09 0.000000000000D+00
18 21 11 25  9 15  0.0 9.834673255682D-05 0.000000000000D+00 3.240000000000D+04
   -2.356857617188D+04-6.684522628784D-01 0.000000000000D+00 0.000000000000D+00
    8.053187988281D+03 3.964395523071D-01 9.313225746155D-10-3.000000000000D+00
   -5.380271972656D+03 3.512198448181D+00-0.000000000000D+00 0.000000000000D+00
19 21 11 25  9 15  0.0-1.682853326201D-04-9.094947017729D-13 3.240000000000D+04
   -1.314840820312D+04-2.485625267029D+00 0.000000000000D+00 0.000000000000D+00
    1.125026562500D+04 6.773509979248D-01 2.793967723846D-09 3.000000000000D+00
   -1.873945751953D+04 2.148922920227D+00 0.000000000000D+00 0.000000000000D+00
 6 21 11 25  9 15  0.0-1.776311546564D-05-1.818989403546D-12 3.273000000000D+04
    4.164559570312D+03-5.275964736938D-01-0.000000000000D+00 0.000000000000D+00
    1.783859765625D+04 2.374400138855D+00 0.000000000000D+00-4.000000000000D+00
    1.772033349609D+04-2.266485214233D+00-2.793967723846D-09 0.000000000000D+00
 9 21 11 25  9 45  0.0 2.543162554502D-05 2.728484105319D-12 3.420000000000D+04
    1.444776464844D+04-1.131057739258D+00-0.000000000000D+00 0.000000000000D+00
    1.794840380859D+04-9.983243942261D-01 0.000000000000D+00-2.000000000000D+00
    1.103918066406D+04 3.101755142212D+00-2.793967723846D-09 0.000000000000D+00
 4 21 11 25  9 45  0.0 1.158937811852D-04 1.818989403546D-12 3.420000000000D+04
   -1.118158496094D+04 5.046758651733D-01 0.000000000000D+00 0.000000000000D+00
    1.125968310547D+04-2.692016601562D+00 2.793967723846D-09 6.000000000000D+00
   -1.994700341797D+04-1.801935195923D+00 0.000000000000D+00 0.000000000000D+00
 5 21 11 25  9 45  0.0 8.307304233313D-05 0.000000000000D+00 3.420000000000D+04
   -6.749010742188D+03 3.084707260132D-01 0.000000000000D+00 0.000000000000D+00
    2.372532910156D+04-8.456296920776D-01 1.862645149231D-09 1.000000000000D+00
   -6.438379882812D+03-3.440229415894D+00-9.313225746155D-10 0.000000000000D+00
16 21 11 25  9 45  0.0-2.563651651144D-05-9.094947017729D-13 3.420000000000D+04
    2.069213867188D+02-2.364587783813D+00-0.000000000000D+00 0.000000000000D+00
    1.333590087891D+04-1.810734748840D+00-0.000000000000D+00-1.000000000000D+00
    2.169472314453D+04 1.147038459778D+00-2.793967723846D-09 0.000000000000D+00
18 21 11 25  9 45  0.0 9.834859520197D-05 9.094947017729D-13 3.420000000000D+04
   -2.396592675781D+04 2.192487716675D-01 0.000000000000D+00 0.000000000000D+00
    8.602487792969D+03 1.718606948853D-01 0.000000000000D+00-3.000000000000D+00
    1.068412597656D+03 3.606325149536D+00-0.000000000000D+00 0.000000000000D+00
19 21 11 25  9 45  0.0-1.682881265879D-04-9.094947017729D-13 3.420000000000D+04
   -1.700481884766D+04-1.770545005798D+00 0.000000000000D+00 0.000000000000D+00
    1.264981738281D+04 8.384666442871D-01 1.862645149231D-09 3.000000000000D+00
   -1.419693945312D+04 2.865528106689D+00-0.000000000000D+00 0.000000000000D+00
 6 21 11 25  9 45  0.0-1.776777207851D-05-1.818989403546D-12 3.426000000000D+04
    3.615214843750D+03-1.055412292480D-01-0.000000000000D+00 0.000000000000D+00
    2.161832421875D+04 1.785449981689D+00 9.313225746155D-10-4.000000000000D+00
    1.300674365234D+04-2.936748504639D+00-2.793967723846D-09 0.000000000000D+00
 9 21 11 25 10 15  0.0 2.543628215790D-05 2.728484105319D-12 3.600000000000D+04
    1.174598388672D+04-1.863481521606D+00-0.000000000000D+00 0.000000000000D+00
    1.595592236328D+04-1.172291755676D+00 0.000000000000D+00-2.000000000000D+00
    1.612573925781D+04 2.513422966003D+00-2.793967723846D-09 0.000000000000D+00
 4 21 11 25 10 15  0.0 1.158965751529D-04 1.818989403546D-12 3.600000000000D+04
   -1.061233447266D+04 1.080770492554D-01 9.313225746155D-10 0.000000000000D+00
    6.032845703125D+03-3.068708419800D+00 1.862645149231D-09 6.000000000000D+00
   -2.237574658203D+04-8.791208267212D-01 9.313225746155D-10 0.000000000000D+00
 5 21 11 25 10 15  0.0 8.307397365570D-05 0.000000000000D+00 3.600000000000D+04
   -6.262032714844D+03 1.931276321411D-01 9.313225746155D-10 0.000000000000D+00
    2.143372607422D+04-1.682589530945D+00 2.793967723846D-09 1.000000000000D+00
   -1.230127392578D+04-3.031731605530D+00-9.313225746155D-10 0.000000000000D+00
